STARLINK-4527           
1 53436U 22097BA  24092.81119424  .00004056  00000+0  27278-3 0  9991
2 53436  53.2192  37.1064 0001313  91.8962 268.2181 15.08842776 91599
STARLINK-4526           
1 53438U 22097BC  24093.20494137  .00001160  00000+0  90958-4 0  9993
2 53438  53.2192  35.2993 0001251  92.7892 267.3244 15.08841154 91650
STARLINK-4519           
1 53439U 22097BD  24093.21695662  .00004923  00000+0  32718-3 0  9990
2 53439  53.2183  35.3693 0001380  81.6861 278.4287 15.08842986 91659
STARLINK-4415           
1 53465U 22099A   24092.81261990  .00006608  00000+0  51845-3 0  9993
2 53465  97.6551 214.7580 0002099  89.8736 270.2729 15.01268814 90178
STARLINK-4398           
1 53466U 22099B   24093.07947402 -.00000062  00000+0 -25130-6 0  9993
2 53466  97.6548 215.0159 0001057  81.2083 278.9261 15.01264285 90203
STARLINK-4394           
1 53467U 22099C   24092.80891946  .00005843  00000+0  45906-3 0  9995
2 53467  97.6544 214.8066 0001750  85.7782 274.3642 15.01266968 90167
STARLINK-4400           
1 53468U 22099D   24092.60919911 -.00001614  00000+0 -12107-3 0  9998
2 53468  97.6539 214.5526 0001923  91.1310 269.0134 15.01259488 89894
STARLINK-4399           
1 53469U 22099E   24093.07183119 -.00002045  00000+0 -15469-3 0  9997
2 53469  97.6530 215.0122 0001562  93.7471 266.3932 15.01252102 90208
STARLINK-4393           
1 53470U 22099F   24093.07368460  .00001574  00000+0  12708-3 0  9990
2 53470  97.6542 215.0116 0001839  90.6443 269.4992 15.01259356 90206
STARLINK-4316           
1 53471U 22099G   24093.06812760  .00001765  00000+0  14201-3 0  9999
2 53471  97.6551 215.0079 0001694  90.2772 269.8647 15.01256857 90209
STARLINK-4447           
1 53472U 22099H   24093.06997576  .00001241  00000+0  10122-3 0  9996
2 53472  97.6534 215.0115 0001755  92.8836 267.2589 15.01262084 90205
STARLINK-4383           
1 53473U 22099J   24093.06442387  .00006127  00000+0  48098-3 0  9993
2 53473  97.6536 215.0047 0001504  95.5871 264.5524 15.01274648 90201
STARLINK-4445           
1 53474U 22099K   24093.05726052  .00001015  00000+0  83604-4 0  9991
2 53474  97.6556 214.9926 0000599 109.5647 250.5642 15.01257739 90206
STARLINK-4389           
1 53475U 22099L   24093.06256953  .00002689  00000+0  21388-3 0  9999
2 53475  97.6546 215.0016 0001598  93.0034 267.1373 15.01261388 90205
STARLINK-4378           
1 53476U 22099M   24093.06627035  .00001376  00000+0  11170-3 0  9993
2 53476  97.6539 215.0065 0001648  93.6306 266.5106 15.01263775 90205
STARLINK-4412           
1 53477U 22099N   24092.79805745  .00001449  00000+0  11735-3 0  9997
2 53477  97.6551 214.7274 0001364  86.2673 273.8707 15.01258859 90168
STARLINK-4433           
1 53478U 22099P   24092.85890980  .00000098  00000+0  12217-4 0  9996
2 53478  97.6536 214.8126 0001198  93.8116 266.3245 15.01258715 90176
STARLINK-4436           
1 53479U 22099Q   24093.05701249  .00001172  00000+0  95780-4 0  9999
2 53479  97.6538 214.9911 0000284 118.7352 241.3900 15.01259439 90205
STARLINK-4442           
1 53480U 22099R   24093.06071702 -.00001881  00000+0 -14192-3 0  9992
2 53480  97.6539 214.9992 0001041  92.5143 267.6200 15.01257169 90208
STARLINK-4302           
1 53481U 22099S   24092.92185870  .00002880  00000+0  22868-3 0  9996
2 53481  97.6525 214.8525 0001011  96.5447 263.5893 15.01263210 90187
STARLINK-4360           
1 53482U 22099T   24092.91074079  .00005382  00000+0  42323-3 0  9992
2 53482  97.6535 214.8623 0004254 253.3705 106.7052 15.01263270 90181
STARLINK-4401           
1 53483U 22099U   24092.57561823 -.00001318  00000+0 -97999-4 0  9990
2 53483  97.6531 214.5230 0002664 262.3614  97.7307 15.01258546 89899
STARLINK-4426           
1 53484U 22099V   24092.85334172  .00001266  00000+0  10313-3 0  9991
2 53484  97.6533 214.7838 0000337 235.7971 124.3221 15.01264577 90179
STARLINK-4430           
1 53485U 22099W   24092.84779311  .00000828  00000+0  69035-4 0  9998
2 53485  97.6536 214.7757 0001196 247.0247 113.0851 15.01260064 90170
STARLINK-4431           
1 53486U 22099X   24092.85149112  .00038135  00000+0  29549-2 0  9996
2 53486  97.6531 214.7807 0002029 249.5394 110.5613 15.01294143 90171
STARLINK-4432           
1 53487U 22099Y   24092.91840036  .00001331  00000+0  10823-3 0  9991
2 53487  97.6535 214.8298 0000210 238.5285 121.5919 15.01257043 90188
STARLINK-4421           
1 53488U 22099Z   24092.91629709 -.00000136  00000+0 -60301-5 0  9996
2 53488  97.6527 214.8434 0001465 261.7180  98.3878 15.01260862 90185
STARLINK-4392           
1 53489U 22099AA  24092.58327828  .00004946  00000+0  38925-3 0  9993
2 53489  97.6531 214.4984 0001096 252.9038 107.2067 15.01272628 89890
STARLINK-4387           
1 53490U 22099AB  24092.91258994  .00002838  00000+0  22543-3 0  9996
2 53490  97.6531 214.8376 0002770 257.8785 102.2129 15.01269299 90182
STARLINK-4450           
1 53491U 22099AC  24092.83491276 -.00009902  00000+0 -76928-3 0  9997
2 53491  97.6558 214.7707 0000819 153.8873 206.2392 15.01169461 90170
STARLINK-4451           
1 53492U 22099AD  24092.90703298  .00000098  00000+0  12248-4 0  9997
2 53492  97.6536 214.8366 0003904 255.8543 104.2247 15.01261133 90180
STARLINK-4361           
1 53493U 22099AE  24092.90518105  .00000932  00000+0  77138-4 0  9995
2 53493  97.6539 214.8221 0004958 260.7189  99.3475 15.01265778 90181
STARLINK-4340           
1 53494U 22099AF  24092.90913653  .00004585  00000+0  36127-3 0  9993
2 53494  97.6538 214.8291 0003446 252.2518 107.8330 15.01267978 90180
STARLINK-4429           
1 53495U 22099AG  24092.83297649  .00001839  00000+0  14771-3 0  9996
2 53495  97.6558 214.7620 0004590 245.2916 114.7830 15.01266557 90187
STARLINK-4465           
1 53496U 22099AH  24092.83668014  .00001826  00000+0  14668-3 0  9996
2 53496  97.6540 214.7628 0003539 231.9313 128.1592 15.01261100 90174
STARLINK-4453           
1 53497U 22099AJ  24092.82927582  .00003067  00000+0  24327-3 0  9996
2 53497  97.6573 214.7625 0003173 238.8231 121.2683 15.01264054 90184
STARLINK-4439           
1 53498U 22099AK  24093.09612565  .00002508  00000+0  19978-3 0  9994
2 53498  97.6567 215.0375 0003999 240.1764 119.9063 15.01265836 90216
STARLINK-4454           
1 53499U 22099AL  24092.30161469  .00003243  00000+0  25695-3 0  9990
2 53499  97.6543 214.2201 0004765 242.5385 117.5355 15.01261611 89850
STARLINK-4455           
1 53500U 22099AM  24093.09773782  .00001030  00000+0  84815-4 0  9999
2 53500  97.6555 215.0251 0003394 243.5683 116.5193 15.01259105 90226
STARLINK-4434           
1 53501U 22099AN  24092.82187757  .00000799  00000+0  66783-4 0  9996
2 53501  97.6556 214.7675 0000396 197.6862 162.4349 15.01276766 90170
STARLINK-4435           
1 53502U 22099AP  24093.09403536  .00013005  00000+0  10146-2 0  9997
2 53502  97.6565 215.0261 0003462 241.5420 118.5455 15.01279629 90218
STARLINK-4461           
1 53503U 22099AQ  24092.82767512  .00002617  00000+0  20823-3 0  9996
2 53503  97.6572 214.7498 0001111 249.4459 110.6646 15.01260839 90176
STARLINK-4448           
1 53504U 22099AR  24093.09217938  .00001688  00000+0  13596-3 0  9995
2 53504  97.6567 215.0258 0003584 255.3767 104.7060 15.01264175 90219
STARLINK-4446           
1 53505U 22099AS  24093.08478239  .00014699  00000+0  11462-2 0  9993
2 53505  97.6548 215.0240 0001358 264.8470  95.2600 15.01274910 90215
STARLINK-4437           
1 53506U 22099AT  24093.09033683  .00002681  00000+0  21321-3 0  9999
2 53506  97.6561 215.0176 0002655 250.8490 109.2447 15.01273478 90210
STARLINK-4444           
1 53507U 22099AU  24092.81631920  .00000090  00000+0  11575-4 0  9990
2 53507  97.6569 214.7606 0001529 254.7022 105.4033 15.01253821 90170
STARLINK-4443           
1 53508U 22099AV  24092.82001788 -.00000761  00000+0 -54635-4 0  9996
2 53508  97.6549 214.7626 0002695 272.6887  87.4028 15.01269601 90170
STARLINK-4402           
1 53509U 22099AW  24093.08108267  .00002209  00000+0  17654-3 0  9992
2 53509  97.6545 215.0177 0000537  95.3241 264.8044 15.01260758 90217
STARLINK-4441           
1 53510U 22099AX  24092.81077618  .00002501  00000+0  19922-3 0  9994
2 53510  97.6544 214.7645 0002281  87.7835 272.3651 15.01262319 90174
STARLINK-4511           
1 53527U 22101A   24092.46438309  .00000634  00000+0  57904-4 0  9993
2 53527  53.2179   8.9815 0001468  86.6093 273.5067 15.08840106 89395
STARLINK-4503           
1 53528U 22101B   24093.19670124  .00002386  00000+0  16788-3 0  9998
2 53528  53.2187   5.6950 0001465 104.7916 255.3239 15.08855096 89508
STARLINK-4478           
1 53529U 22101C   24093.12310076  .00002331  00000+0  16448-3 0  9992
2 53529  53.2187   6.0358 0001529  99.8824 260.2341 15.08838562 89495
STARLINK-4482           
1 53530U 22101D   24093.13786025  .00005864  00000+0  38610-3 0  9995
2 53530  53.2183   6.1763 0001262  85.9573 274.1564 15.08847917 89490
STARLINK-4487           
1 53531U 22101E   24092.78822243  .00000223  00000+0  32113-4 0  9996
2 53531  53.2197   7.5218 0001672 109.8033 250.3139 15.08838872 89447
STARLINK-4483           
1 53532U 22101F   24092.75510413 -.00001198  00000+0 -57183-4 0  9995
2 53532  53.2192   7.6752 0001432  95.4299 264.6857 15.08837337 89445
STARLINK-4493           
1 53533U 22101G   24092.48646608  .00002867  00000+0  19813-3 0  9991
2 53533  53.2178   8.8703 0001807  79.6585 280.4610 15.08846334 89403
STARLINK-4488           
1 53534U 22101H   24092.78083627  .00000143  00000+0  27086-4 0  9998
2 53534  53.2199   7.2887 0001186  84.1892 275.9235 15.08850613 89457
STARLINK-4138           
1 53535U 22101J   24092.74774511  .00000596  00000+0  55544-4 0  9996
2 53535  53.2194   7.7123 0001764  96.6929 263.4264 15.08838555 89446
STARLINK-4053           
1 53536U 22101K   24093.12033626  .00000273  00000+0  35242-4 0  9990
2 53536  53.2176 355.9576 0001143  90.0135 270.0988 15.08837892 89636
